KUZGTU 1 (RS47S)        
1 57217U 23091AV  26201.90691307  .00008032  00000+0  27425-3 0  9998
2 57217  97.5041 266.7441 0009490 344.9352  15.1605 15.30546510169534
SONATE-2                
1 59112U 24043Q   26201.87869357  .00032850  00000+0  38934-3 0  9992
2 59112  97.5562 354.4137 0006554  88.4343 271.7665 15.61147833133146
MESAT1                  
1 60209U 24125G   26201.86408554  .00053549  00000+0  50243-3 0  9994
2 60209  97.2245  60.2014 0010660  95.2222 265.0255 15.66958403114835
OOV-CUBE (TUBSAT-30)    
1 60240U 24128F   26201.92245923  .00001222  00000+0  10485-3 0  9993
2 60240  61.9942 107.9291 0040370 141.3117 219.0878 15.02888772111181
COLIBRI-S (RS67S)       
1 61746U 24199M   26201.92529592  .00017238  00000+0  31938-3 0  9990
2 61746  97.2940  76.1107 0009533 143.4052 216.7852 15.49009683142630
HORS 3 (RS81S)          
1 61753U 24199U   26201.91341859  .00030290  00000+0  41673-3 0  9995
2 61753  97.2922  78.4741 0007758 139.0993 221.0846 15.57191521142802
HORS 4 (RS82S)          
1 61754U 24199V   26201.89080934  .00046367  00000+0  51406-3 0  9994
2 61754  97.2862  79.8920 0007460 132.5002 227.6888 15.62801457142900
SIT-2086                
1 61764U 24199AF  26201.86830764  .00030548  00000+0  45043-3 0  9990
2 61764  97.2880  78.7872 0008580 128.4033 231.7994 15.55300805139663
HYPERVIEW 1G (RS66S)    
1 61772U 24199AP  26201.72930448  .00205505  00000+0  76960-3 0  9993
2 61772  97.2787  83.4065 0008165 138.8405 221.3484 15.87333013139977
ALTAIR (RS65S)          
1 61779U 24199AW  26201.89400385  .00007236  00000+0  19794-3 0  9993
2 61779  97.2985  71.0285 0012676 175.8332 184.3021 15.37580396142290
ASRTU-1 (AO-123)        
1 61781U 24199AY  26201.91293305  .00005278  00000+0  15197-3 0  9998
2 61781  97.2957  70.2822 0013621 179.6843 180.4412 15.36104726139105
SAMSAT-IONOSPHERE (RS7*)
1 61784U 24199BB  26201.88288934  .00039592  00000+0  47969-3 0  9997
2 61784  97.2885  78.6273 0009800 142.4862 217.7081 15.60499395142817
RTU MIREA 1 (RS51S)     
1 61785U 24199BC  26201.88798966  .00054832  00000+0  56128-3 0  9990
2 61785  97.2871  79.6578 0009812 138.1919 222.0092 15.64779509139730
TEVEL2-4                
1 63213U 25052D   26201.22894966  .00010410  00000+0  30230-3 0  9992
2 63213  97.3852  97.6941 0003105  41.7416 318.4064 15.35674787 75189
TEVEL2-5                
1 63214U 25052E   26201.70951319  .00011471  00000+0  33470-3 0  9999
2 63214  97.3850  98.1137 0003065  43.1625 316.9858 15.35497707 75251
TEVEL2-6                
1 63215U 25052F   26201.98329149  .00013929  00000+0  40616-3 0  9990
2 63215  97.3855  98.3732 0003116  44.6176 315.5318 15.35470217 75291
TEVEL2-1                
1 63217U 25052H   26201.95933923  .00012768  00000+0  37939-3 0  9994
2 63217  97.3828  97.9321 0003745  47.7905 312.3656 15.34894951 75276
TEVEL2-3                
1 63218U 25052J   26201.23556228  .00009843  00000+0  29271-3 0  9995
2 63218  97.3836  97.2337 0003659  50.1698 309.9867 15.34939531 75165
TEVEL2-2                
1 63219U 25052K   26201.95942480  .00013073  00000+0  38822-3 0  9996
2 63219  97.3828  97.9353 0003829  47.8008 312.3560 15.34907749 75275
OTP-2                   
1 63235U 25052AB  26201.44618076  .00004108  00000+0  17053-3 0  9991
2 63235  97.3822  93.3820 0007889  56.5429 303.6562 15.24376770 74930
TEVEL2-9                
1 63237U 25052AD  26201.26333412  .00009848  00000+0  31278-3 0  9992
2 63237  97.3892  96.5399 0007209  42.4598 317.7200 15.32827728 75098
TEVEL2-7                
1 63238U 25052AE  26201.70263008  .00009851  00000+0  31592-3 0  9998
2 63238  97.3894  96.8798 0007267  41.4161 318.7630 15.32517525 75152
TEVEL2-8                
1 63239U 25052AF  26201.97238322  .00011906  00000+0  38127-3 0  9994
2 63239  97.3893  97.1254 0007294  41.5783 318.6012 15.32511630 75192
INNOSAT 16 (RS92S7)     
1 64878U 25155C   26201.91148663  .00004379  00000+0  17402-3 0  9999
2 64878  97.4588 168.9442 0012323  71.3807 288.8768 15.25777420 85816
GEOSCAN 6 (RS92S6)      
1 64879U 25155D   26201.91869130  .00007881  00000+0  26763-3 0  9990
2 64879  97.4578 170.6199 0009701  66.1028 294.1229 15.30724879 85928
GEOSCAN 1 (RS92S1)      
1 64880U 25155E   26201.90731467  .00008182  00000+0  27221-3 0  9997
2 64880  97.4574 170.7873 0009633  66.3316 293.8935 15.31377742 85937
239ALFEROV (RS61S)      
1 64881U 25155F   26201.89171948  .00010769  00000+0  33166-3 0  9997
2 64881  97.4574 171.4514 0009351  66.4080 293.8143 15.33772290 85978
GEOSCAN 2 (RS92S2)      
1 64890U 25155Q   26201.89522773  .00007944  00000+0  26233-3 0  9991
2 64890  97.4574 170.9406 0008687  56.5654 303.6417 15.31634851 85949
GEOSCAN 5 (RS92S5)      
1 64891U 25155R   26201.93913825  .00011161  00000+0  34044-3 0  9994
2 64891  97.4566 171.6494 0008421  71.4623 288.7534 15.34076381 85993
GEOSCAN 4 (RS92S4)      
1 64892U 25155S   26201.91976807  .00011150  00000+0  33829-3 0  9990
2 64892  97.4570 171.6885 0008296  71.8507 288.3639 15.34246928 85996
