OBJECT_NAME,OBJECT_ID,EPOCH,MEAN_MOTION,ECCENTRICITY,INCLINATION,RA_OF_ASC_NODE,ARG_OF_PERICENTER,MEAN_ANOMALY,EPHEMERIS_TYPE,CLASSIFICATION_TYPE,NORAD_CAT_ID,ELEMENT_SET_NO,REV_AT_EPOCH,BSTAR,MEAN_MOTION_DOT,MEAN_MOTION_DDOT
KUZGTU 1 (RS47S),2023-091AV,2026-07-20T21:45:57.289248,15.30546510,.00094909,97.5041,266.7441,344.9352,15.1605,0,U,57217,999,16953,.27424765E-3,.8032E-4,0
SONATE-2,2024-043Q,2026-07-20T21:05:19.124448,15.61147833,.00065546,97.5562,354.4137,88.4343,271.7665,0,U,59112,999,13314,.38933755E-3,.3285E-3,0
MESAT1,2024-125G,2026-07-20T20:44:16.990656,15.66958403,.00106608,97.2245,60.2014,95.2222,265.0255,0,U,60209,999,11483,.50243348E-3,.53549E-3,0
OOV-CUBE (TUBSAT-30),2024-128F,2026-07-20T22:08:20.477472,15.02888772,.00403708,61.9942,107.9291,141.3117,219.0878,0,U,60240,999,11118,.10484719E-3,.1222E-4,0
COLIBRI-S (RS67S),2024-199M,2026-07-20T22:12:25.567488,15.49009683,.00095339,97.2940,76.1107,143.4052,216.7852,0,U,61746,999,14263,.31937655E-3,.17238E-3,0
HORS 3 (RS81S),2024-199U,2026-07-20T21:55:19.366176,15.57191521,.0007758,97.2922,78.4741,139.0993,221.0846,0,U,61753,999,14280,.41673025E-3,.3029E-3,0
HORS 4 (RS82S),2024-199V,2026-07-20T21:22:45.926976,15.62801457,.00074604,97.2862,79.8920,132.5002,227.6888,0,U,61754,999,14290,.51405937E-3,.46367E-3,0
SIT-2086,2024-199AF,2026-07-20T20:50:21.780096,15.55300805,.00085804,97.2880,78.7872,128.4033,231.7994,0,U,61764,999,13966,.45042812E-3,.30548E-3,0
HYPERVIEW 1G (RS66S),2024-199AP,2026-07-20T17:30:11.907072,15.87333013,.00081657,97.2787,83.4065,138.8405,221.3484,0,U,61772,999,13997,.76959965E-3,.205505E-2,0
ALTAIR (RS65S),2024-199AW,2026-07-20T21:27:21.932640,15.37580396,.00126761,97.2985,71.0285,175.8332,184.3021,0,U,61779,999,14229,.1979436E-3,.7236E-4,0
ASRTU-1 (AO-123),2024-199AY,2026-07-20T21:54:37.415520,15.36104726,.00136216,97.2957,70.2822,179.6843,180.4412,0,U,61781,999,13910,.15196812E-3,.5278E-4,0
SAMSAT-IONOSPHERE (RS75S),2024-199BB,2026-07-20T21:11:21.638976,15.60499395,.00098007,97.2885,78.6273,142.4862,217.7081,0,U,61784,999,14281,.47969414E-3,.39592E-3,0
RTU MIREA 1 (RS51S),2024-199BC,2026-07-20T21:18:42.306624,15.64779509,.00098124,97.2871,79.6578,138.1919,222.0092,0,U,61785,999,13973,.56127504E-3,.54832E-3,0
TEVEL2-4,2025-052D,2026-07-20T05:29:41.250624,15.35674787,.00031053,97.3852,97.6941,41.7416,318.4064,0,U,63213,999,7518,.30229523E-3,.1041E-3,0
TEVEL2-5,2025-052E,2026-07-20T17:01:41.939616,15.35497707,.00030658,97.3850,98.1137,43.1625,316.9858,0,U,63214,999,7525,.33470285E-3,.11471E-3,0
TEVEL2-6,2025-052F,2026-07-20T23:35:56.384736,15.35470217,.00031162,97.3855,98.3732,44.6176,315.5318,0,U,63215,999,7529,.40615668E-3,.13929E-3,0
TEVEL2-1,2025-052H,2026-07-20T23:01:26.909472,15.34894951,.00037459,97.3828,97.9321,47.7905,312.3656,0,U,63217,999,7527,.37939109E-3,.12768E-3,0
TEVEL2-3,2025-052J,2026-07-20T05:39:12.580992,15.34939531,.0003659,97.3836,97.2337,50.1698,309.9867,0,U,63218,999,7516,.29270829E-3,.9843E-4,0
TEVEL2-2,2025-052K,2026-07-20T23:01:34.302720,15.34907749,.00038298,97.3828,97.9353,47.8008,312.3560,0,U,63219,999,7527,.38821513E-3,.13073E-3,0
OTP-2,2025-052AB,2026-07-20T10:42:30.017664,15.24376770,.00078891,97.3822,93.3820,56.5429,303.6562,0,U,63235,999,7493,.17052896E-3,.4108E-4,0
TEVEL2-9,2025-052AD,2026-07-20T06:19:12.067968,15.32827728,.00072091,97.3892,96.5399,42.4598,317.7200,0,U,63237,999,7509,.31277913E-3,.9848E-4,0
TEVEL2-7,2025-052AE,2026-07-20T16:51:47.238912,15.32517525,.00072679,97.3894,96.8798,41.4161,318.7630,0,U,63238,999,7515,.31591695E-3,.9851E-4,0
TEVEL2-8,2025-052AF,2026-07-20T23:20:13.910208,15.32511630,.00072948,97.3893,97.1254,41.5783,318.6012,0,U,63239,999,7519,.38126763E-3,.11906E-3,0
INNOSAT 16 (RS92S7),2025-155C,2026-07-20T21:52:32.444832,15.25777420,.00123236,97.4588,168.9442,71.3807,288.8768,0,U,64878,999,8581,.17402369E-3,.4379E-4,0
GEOSCAN 6 (RS92S6),2025-155D,2026-07-20T22:02:54.928320,15.30724879,.00097015,97.4578,170.6199,66.1028,294.1229,0,U,64879,999,8592,.26762994E-3,.7881E-4,0
GEOSCAN 1 (RS92S1),2025-155E,2026-07-20T21:46:31.987488,15.31377742,.0009633,97.4574,170.7873,66.3316,293.8935,0,U,64880,999,8593,.27221085E-3,.8182E-4,0
239ALFEROV (RS61S),2025-155F,2026-07-20T21:24:04.563072,15.33772290,.00093511,97.4574,171.4514,66.4080,293.8143,0,U,64881,999,8597,.33165977E-3,.10769E-3,0
GEOSCAN 2 (RS92S2),2025-155Q,2026-07-20T21:29:07.675872,15.31634851,.00086878,97.4574,170.9406,56.5654,303.6417,0,U,64890,999,8594,.26233212E-3,.7944E-4,0
GEOSCAN 5 (RS92S5),2025-155R,2026-07-20T22:32:21.544800,15.34076381,.0008421,97.4566,171.6494,71.4623,288.7534,0,U,64891,999,8599,.34044363E-3,.11161E-3,0
GEOSCAN 4 (RS92S4),2025-155S,2026-07-20T22:04:27.961248,15.34246928,.00082963,97.4570,171.6885,71.8507,288.3639,0,U,64892,999,8599,.33828503E-3,.1115E-3,0
